{
  "type": "FeatureCollection",
  "name": "wilayah_pemantauan",
  "crs": {
    "type": "name",
    "properties": { "name": "urn:ogc:def:crs:OGC:1.3:CRS84" }
  },
  "features": [
    {
      "type": "Feature",
      "properties": { "NAMOBJ": "Kota Palu" },
      "geometry": {
        "type": "Polygon",
        "coordinates": [[
          [119.7800, -0.9500],
          [119.9800, -0.9500],
          [119.9800, -0.7500],
          [119.7800, -0.7500],
          [119.7800, -0.9500]
        ]]
      }
    },
    {
      "type": "Feature",
      "properties": { "NAMOBJ": "Kab. Sigi" },
      "geometry": {
        "type": "Polygon",
        "coordinates": [[
          [119.6000, -1.5000],
          [120.1000, -1.5000],
          [120.1000, -0.9500],
          [119.6000, -0.9500],
          [119.6000, -1.5000]
        ]]
      }
    },
    {
      "type": "Feature",
      "properties": { "NAMOBJ": "Kab. Donggala" },
      "geometry": {
        "type": "Polygon",
        "coordinates": [[
          [119.5000, -0.9500],
          [119.7800, -0.9500],
          [119.7800, -0.3000],
          [119.5000, -0.3000],
          [119.5000, -0.9500]
        ]]
      }
    },
    {
      "type": "Feature",
      "properties": { "NAMOBJ": "Kab. Parigi Moutong" },
      "geometry": {
        "type": "Polygon",
        "coordinates": [[
          [119.9800, -1.2000],
          [120.6000, -1.2000],
          [120.6000, -0.2000],
          [119.9800, -0.2000],
          [119.9800, -1.2000]
        ]]
      }
    }
  ]
}
